BEIJING 1               
1 28890U 05043A   24182.22781877  .00000741  00000+0  15593-3 0  9995
2 28890  98.2018 304.9908 0015030  10.6168 349.5348 14.62373162995803
HUANJING 1A (HJ-1A)     
1 33320U 08041A   24182.21221254  .00002988  00000+0  40004-3 0  9997
2 33320  97.6306 188.5816 0019385 333.1412  26.8795 14.80028115852286
HUANJING 1B (HJ-1B)     
1 33321U 08041B   24182.21372491  .00002277  00000+0  30164-3 0  9995
2 33321  97.6257 193.1184 0038681  16.0299 344.2128 14.80312652852304
YAOGAN-4                
1 33446U 08061A   24182.07358212  .00002848  00000+0  38384-3 0  9990
2 33446  97.8789 113.7087 0013601 240.9276 119.0574 14.79877943839464
DEIMOS-1                
1 35681U 09041A   24182.16704471  .00001179  00000+0  18920-3 0  9994
2 35681  97.6804   3.3934 0001735  39.2678 320.8657 14.73362300801225
UK-DMC 2                
1 35683U 09041C   24182.17476609  .00001789  00000+0  28354-3 0  9995
2 35683  97.7828 329.2861 0001570  87.3148 272.8240 14.73371070800920
DMC3-FM1                
1 40715U 15032A   24182.18039141  .00001390  00000+0  17428-3 0  9999
2 40715  97.7488  60.7142 0004291 244.7083 115.3687 14.83723566483502
DMC3-FM2                
1 40716U 15032B   24182.20319490  .00001350  00000+0  16944-3 0  9999
2 40716  97.7541  61.8144 0006153 252.1068 107.9475 14.83730225483504
DMC3-FM3                
1 40717U 15032C   24182.22861036  .00001080  00000+0  13709-3 0  9996
2 40717  97.7590  63.1209 0007656 248.7248 111.3149 14.83654074483511
